{
  "norad_id": 67509,
  "name": "STARLINK-36541",
  "history": [
    {
      "epoch": "2026-03-28T16:33:57.140352Z",
      "apogee_km": 483.60121041995626,
      "perigee_km": 482.2885482348038,
      "latitude_deg": -3.355357847982619e-05,
      "longitude_deg": 132.86930736871466,
      "height_km": 482.1357406294273,
      "semi_major_axis_km": 6861.08187932738,
      "eccentricity": 9.566e-05,
      "inclination_deg": 42.9981,
      "raan_deg": 207.4645,
      "arg_perigee_deg": 27.1601,
      "mean_anomaly_deg": 332.93,
      "mean_motion_rev_day": 15.27614805
    },
    {
      "epoch": "2026-03-29T00:24:43.997760Z",
      "apogee_km": 483.6358102364511,
      "perigee_km": 482.44333774789266,
      "latitude_deg": 2.6392217205686557e-06,
      "longitude_deg": 13.005768542142913,
      "height_km": 482.23826155306944,
      "semi_major_axis_km": 6861.176573992172,
      "eccentricity": 8.69e-05,
      "inclination_deg": 42.9977,
      "raan_deg": 205.6184,
      "arg_perigee_deg": 14.8528,
      "mean_anomaly_deg": 345.2349,
      "mean_motion_rev_day": 15.2758318
    },
    {
      "epoch": "2026-03-29T23:57:04.895712Z",
      "apogee_km": 483.78037909235627,
      "perigee_km": 482.396607134905,
      "latitude_deg": 3.700259922905106e-05,
      "longitude_deg": 13.414212825640414,
      "height_km": 482.2069661033726,
      "semi_major_axis_km": 6861.22549311363,
      "eccentricity": 0.00010084,
      "inclination_deg": 43.0009,
      "raan_deg": 200.0806,
      "arg_perigee_deg": 341.8442,
      "mean_anomaly_deg": 18.2374,
      "mean_motion_rev_day": 15.27566843
    },
    {
      "epoch": "2026-03-30T07:47:53.015424Z",
      "apogee_km": 484.38938783823323,
      "perigee_km": 482.08945446186317,
      "latitude_deg": 1.43631524800407e-05,
      "longitude_deg": -106.45546225516878,
      "height_km": 482.5007915001035,
      "semi_major_axis_km": 6861.376421150048,
      "eccentricity": 0.0001676,
      "inclination_deg": 42.9999,
      "raan_deg": 198.2337,
      "arg_perigee_deg": 296.6318,
      "mean_anomaly_deg": 63.4362,
      "mean_motion_rev_day": 15.27516441
    },
    {
      "epoch": "2026-03-31T13:36:50.398272Z",
      "apogee_km": 483.56043467711424,
      "perigee_km": 482.05871069128534,
      "latitude_deg": -2.3068553461052933e-06,
      "longitude_deg": 158.06552921180997,
      "height_km": 482.231465502918,
      "semi_major_axis_km": 6860.9465726842,
      "eccentricity": 0.00010944,
      "inclination_deg": 43.0013,
      "raan_deg": 191.2183,
      "arg_perigee_deg": 298.1829,
      "mean_anomaly_deg": 61.8912,
      "mean_motion_rev_day": 15.27659995
    },
    {
      "epoch": "2026-04-01T17:51:40.512096Z",
      "apogee_km": 485.96019648159654,
      "perigee_km": 480.02394760846437,
      "latitude_deg": -2.363363605444636e-05,
      "longitude_deg": 86.54812689647382,
      "height_km": 481.81897759074144,
      "semi_major_axis_km": 6861.129072045031,
      "eccentricity": 0.0004326,
      "inclination_deg": 42.9968,
      "raan_deg": 184.5698,
      "arg_perigee_deg": 71.4767,
      "mean_anomaly_deg": 288.6554,
      "mean_motion_rev_day": 15.27599044
    },
    {
      "epoch": "2026-04-02T14:15:40.247712Z",
      "apogee_km": 484.91802212767834,
      "perigee_km": 481.0118595707145,
      "latitude_deg": 4.443247819134879e-06,
      "longitude_deg": 134.9120639570153,
      "height_km": 482.9797555657361,
      "semi_major_axis_km": 6861.101940849197,
      "eccentricity": 0.00028466,
      "inclination_deg": 43.0052,
      "raan_deg": 179.7704,
      "arg_perigee_deg": 263.0441,
      "mean_anomaly_deg": 97.0087,
      "mean_motion_rev_day": 15.27608105
    },
    {
      "epoch": "2026-04-02T22:06:27.651168Z",
      "apogee_km": 483.3669551533794,
      "perigee_km": 482.57628099623344,
      "latitude_deg": 7.964019438785563e-06,
      "longitude_deg": 15.047209196612693,
      "height_km": 482.6070022195958,
      "semi_major_axis_km": 6861.108618074806,
      "eccentricity": 5.762e-05,
      "inclination_deg": 43.0009,
      "raan_deg": 177.9253,
      "arg_perigee_deg": 290.8439,
      "mean_anomaly_deg": 69.2351,
      "mean_motion_rev_day": 15.27605875
    },
    {
      "epoch": "2026-04-03T12:13:52.058784Z",
      "apogee_km": 484.1783545790913,
      "perigee_km": 481.9882530581126,
      "latitude_deg": 1.7215995835021392e-05,
      "longitude_deg": 159.291891338705,
      "height_km": 482.8590069377237,
      "semi_major_axis_km": 6861.220303818602,
      "eccentricity": 0.0001596,
      "inclination_deg": 43.0029,
      "raan_deg": 174.6017,
      "arg_perigee_deg": 270.0775,
      "mean_anomaly_deg": 89.9894,
      "mean_motion_rev_day": 15.27568576
    },
    {
      "epoch": "2026-04-04T13:20:23.360352Z",
      "apogee_km": 483.8970779423498,
      "perigee_km": 482.0912282228592,
      "latitude_deg": 6.306599602864752e-06,
      "longitude_deg": 135.721678484013,
      "height_km": 482.73268362270943,
      "semi_major_axis_km": 6861.131153082604,
      "eccentricity": 0.0001316,
      "inclination_deg": 42.9989,
      "raan_deg": 168.6931,
      "arg_perigee_deg": 272.4108,
      "mean_anomaly_deg": 87.6593,
      "mean_motion_rev_day": 15.27598349
    },
    {
      "epoch": "2026-04-05T12:52:45.274368Z",
      "apogee_km": 484.17731065604767,
      "perigee_km": 481.97568446895,
      "latitude_deg": -2.0289046999157924e-05,
      "longitude_deg": 136.12481068614713,
      "height_km": 483.035174187776,
      "semi_major_axis_km": 6861.213497562499,
      "eccentricity": 0.00016044,
      "inclination_deg": 42.9995,
      "raan_deg": 163.1543,
      "arg_perigee_deg": 260.4885,
      "mean_anomaly_deg": 99.5785,
      "mean_motion_rev_day": 15.27570849
    },
    {
      "epoch": "2026-04-05T16:01:04.159200Z",
      "apogee_km": 484.0722722735163,
      "perigee_km": 482.0811480548273,
      "latitude_deg": -1.8327288087317381e-06,
      "longitude_deg": 88.17854647054212,
      "height_km": 483.03168054869906,
      "semi_major_axis_km": 6861.213710164172,
      "eccentricity": 0.0001451,
      "inclination_deg": 42.9988,
      "raan_deg": 162.4156,
      "arg_perigee_deg": 259.6769,
      "mean_anomaly_deg": 100.3919,
      "mean_motion_rev_day": 15.27570778
    },
    {
      "epoch": "2026-04-06T04:34:18.898464Z",
      "apogee_km": 484.00337121754364,
      "perigee_km": 481.9708318137118,
      "latitude_deg": 4.901518362263634e-05,
      "longitude_deg": -103.60279229948512,
      "height_km": 482.9339909418691,
      "semi_major_axis_km": 6861.124101515627,
      "eccentricity": 0.00014812,
      "inclination_deg": 42.9989,
      "raan_deg": 159.4612,
      "arg_perigee_deg": 260.3537,
      "mean_anomaly_deg": 99.7148,
      "mean_motion_rev_day": 15.27600704
    },
    {
      "epoch": "2026-04-07T10:23:16.207872Z",
      "apogee_km": 483.91046011043,
      "perigee_km": 481.9653453755018,
      "latitude_deg": 5.502820699971781e-05,
      "longitude_deg": 160.91822534233552,
      "height_km": 482.7369405815702,
      "semi_major_axis_km": 6861.074902742966,
      "eccentricity": 0.00014175,
      "inclination_deg": 42.9984,
      "raan_deg": 152.4455,
      "arg_perigee_deg": 268.6736,
      "mean_anomaly_deg": 91.3954,
      "mean_motion_rev_day": 15.27617135
    },
    {
      "epoch": "2026-04-08T09:55:35.960160Z",
      "apogee_km": 484.1580139193484,
      "perigee_km": 481.74236234215186,
      "latitude_deg": 1.6030638490421562e-05,
      "longitude_deg": 161.32977461943653,
      "height_km": 482.6134108891937,
      "semi_major_axis_km": 6861.08718813075,
      "eccentricity": 0.00017604,
      "inclination_deg": 43.0006,
      "raan_deg": 146.9061,
      "arg_perigee_deg": 275.4083,
      "mean_anomaly_deg": 84.6568,
      "mean_motion_rev_day": 15.27613032
    },
    {
      "epoch": "2026-04-09T09:27:57.284928Z",
      "apogee_km": 484.0810115882932,
      "perigee_km": 482.1420227573408,
      "latitude_deg": 1.3717708779784062e-05,
      "longitude_deg": 161.73549306647246,
      "height_km": 483.104831665189,
      "semi_major_axis_km": 6861.248517172817,
      "eccentricity": 0.0001413,
      "inclination_deg": 42.9994,
      "raan_deg": 141.3674,
      "arg_perigee_deg": 257.0825,
      "mean_anomaly_deg": 102.9869,
      "mean_motion_rev_day": 15.27559154
    },
    {
      "epoch": "2026-04-10T12:08:37.444416Z",
      "apogee_km": 484.0522823254323,
      "perigee_km": 482.00628254001094,
      "latitude_deg": -2.2290852136170987e-05,
      "longitude_deg": 114.19650127680133,
      "height_km": 482.94238396642623,
      "semi_major_axis_km": 6861.166282432721,
      "eccentricity": 0.0001491,
      "inclination_deg": 43.0024,
      "raan_deg": 135.0914,
      "arg_perigee_deg": 262.3555,
      "mean_anomaly_deg": 97.7127,
      "mean_motion_rev_day": 15.27586617
    },
    {
      "epoch": "2026-04-11T13:15:07.445664Z",
      "apogee_km": 484.11186207499395,
      "perigee_km": 481.89982962149315,
      "latitude_deg": 5.325360128012072e-05,
      "longitude_deg": 90.6315119739689,
      "height_km": 482.91348318479095,
      "semi_major_axis_km": 6861.142845848243,
      "eccentricity": 0.0001612,
      "inclination_deg": 43.0017,
      "raan_deg": 129.1825,
      "arg_perigee_deg": 263.2182,
      "mean_anomaly_deg": 96.8487,
      "mean_motion_rev_day": 15.27594444
    },
    {
      "epoch": "2026-04-13T01:20:43.558944Z",
      "apogee_km": 483.9315411786238,
      "perigee_km": 482.10880616386567,
      "latitude_deg": 6.307403872272082e-05,
      "longitude_deg": -100.74555254497005,
      "height_km": 482.9952362232612,
      "semi_major_axis_km": 6861.157173671244,
      "eccentricity": 0.00013283,
      "inclination_deg": 43.0001,
      "raan_deg": 120.6882,
      "arg_perigee_deg": 257.4217,
      "mean_anomaly_deg": 102.6487,
      "mean_motion_rev_day": 15.27589659
    }
  ]
}